#dP2022  1  9  0  0  0.00000000      96 __u+U ITR00 FIT  IAC
## 2192      0.00000000   900.00000000 59588 0.0000000000000
+  113   C06C07C08C09C10C11C12C13C14C16C19C20C21C22C23C24C25
+        C26C27C28C29C30C32C33C34C35C36C37C38C39C40C41C42C43
+        C44C45C46E01E02E03E04E05E07E08E09E11E12E13E14E15E18
+        E19E21E24E25E26E27E30E31E33E36G01G02G03G04G05G06G07
+        G08G09G10G11G12G13G14G15G16G17G18G19G20G21G22G23G24
+        G25G26G27G28G29G30G31G32R01R02R03R04R05R07R08R09R11
+        R12R13R14R15R17R18R19R20R21R22R24  0  0  0  0  0  0
++         9  7  7  8  7  6  7  7  7  9  5  8  5  5  9  7  5
++         7  7  8  7  7  6  7  7  6  5  6  7  8  6  8  6  9
++         7  8  5  6  4  7  6  6  3  5  6  6  5  6  6  6  7
++         7  4  6  6  5  5  5  7  4  7  6  3  7  6  6  3  6
++         6  5  7  3  4  6  6  5  6  5  6  6  6  6  6  8  5
++         6  6  6  3  6  4  5  4  6  7  5  5  9  6  6  6  7
++         5  7  7  6  6  7  7  7  6  6  6  0  0  0  0  0  0
%c M  cc GPS ccc cccc cccc cccc cccc ccccc ccccc ccccc ccccc
%c cc cc ccc ccc cccc cccc cccc cccc ccccc ccccc ccccc ccccc
%f  0.0000000  0.000000000  0.00000000000  0.000000000000000
%f  0.0000000  0.000000000  0.00000000000  0.000000000000000
%i    0    0    0    0      0      0      0      0         0
%i    0    0    0    0      0      0      0      0         0
/* INFORMATION & ANALYSIS CENTER (IAC)      ULTRA-RAPID DATA
/* S/V CLOCKS ARE ALIGNED TO GNSS TIME                      
/* G:C1WC2W R:C1PC2P E:C1XC5X C:C2IC6I J:C1CC2S             
/* PCV:IGS14_2186 OL/AL:FES2004  NONE     YN ORB:CoN CLK:CoN
*  2022 01 09 13 45  0.00000000
PC06  -1613.786332  28677.869324 -30804.990060   -150.434505
PC07 -15668.929856  29722.954989  25391.450652     20.776200
PC08  -9582.013467  41015.872056   3241.520025     45.688448
PC09   5520.296094  32034.731090 -26285.497952   -420.072513
PC10  -8199.719777  29645.493215  28916.023577    139.201760
PC11   2204.020240 -17450.784665 -21584.056078   -281.245039
PC12  17430.076276  -3154.211612 -21523.570499   -432.823422
PC13  -5606.490288  41891.150038  -1920.168651   -152.167120
PC14  12957.111789 -17212.677013  17782.677159    474.119019
PC16  -4799.712431  26212.337760 -32497.142823     50.571344
PC19  -2253.324716  16784.571198 -22155.319852    912.061595
PC20 -20038.493848  15260.866748 -11978.905019   -803.099814
PC21  26892.008273  -4441.710022  -6009.221040   -960.521403
PC22  17549.208569   8676.220217 -19895.832960   -960.759693
PC23 -10399.162165 -17292.750812 -19273.179737   -966.870289
PC24  13700.025607 -20841.947135  12468.544872   -946.326003
PC25   1078.716498 -27287.169864  -5689.739792   -797.405197
PC26  16762.226069  -4043.748465  21921.272122    795.940982
PC27 -22051.445227  -5037.528756  16339.576796    658.607612
PC28 -20597.895865 -18823.905272    277.508418     18.811871
PC29   7708.644617  21385.496971  16181.044137    499.061794
PC30 -10846.837305  11639.126668  22925.394271    490.750559
PC32 -26845.715199   4573.143662   6102.250586   -957.614141
PC33   2262.335994 -16856.924606  22128.482196   -955.734658
PC34  10027.733575 -12406.147208 -22902.618665   -495.728219
PC35  20948.596264  18403.897899    364.738526     85.038168
PC36  -2042.978678  27339.993853   5254.809531   -860.055175
PC37 -16767.462586   2487.111361 -22162.117766   -935.941605
PC38 -13712.711913  38484.286341  10810.920294    202.799152
PC39  -7873.719160  23840.445680 -33873.770264     34.589703
PC40 -23536.218955  24117.183637  25260.801906    234.053567
PC41 -17213.282115  -8942.489129  20112.577865   -921.736733
PC42  20703.170334 -15016.901833  11217.470936   -929.569087
PC43  -6988.496804 -21363.153777 -16556.914960   -949.118347
PC44  22322.180622   4335.066527 -16158.937197    525.966892
PC45  10418.664864  17100.877108  19444.373341    649.243780
PC46 -13060.860186  21884.767677 -11422.303960   -105.422308
PE01  22986.671956 -14986.236850  11081.102255   -555.983184
PE02 -22985.841902  15127.507148 -10944.537985    272.460039
PE03 -25704.329694   5040.669766 -13787.163308   -515.248715
PE04   8634.589631 -15425.970925  23740.571746   -939.014885
PE05 -27996.516438  -8514.464172   4468.414311   -220.061930
PE07  13953.309652  16927.773521 -19875.348069   -626.568407
PE08  -8082.016308  15462.207098 -23916.025217   5874.944685
PE09 -14252.410257 -16710.828569  19836.885303   5401.031455
PE11 -11056.206245 -27400.781829   1885.434137   4715.481350
PE12   2832.469757 -24331.960357 -16621.395260   4818.714860
PE13  10750.225381  27548.354688  -1242.669349    425.478472
PE14   -746.429707  16013.367162  18243.266127  -1704.154847
PE15  -2827.872196  24230.536444  16775.330615    770.330131
PE18   9413.763667 -18095.333210 -24571.798235  -1875.713645
PE19  26939.626093  -3251.623446  11816.906390    473.236735
PE21  18552.489443   2329.274733  22941.720892   -710.221306
PE24  -2143.552657 -20021.920847 -21697.553418  -1325.821967
PE25 -18431.393914  -2549.958015 -23019.905689   -559.692148
PE26  18096.037838  13672.185386 -19011.740371   -667.762540
PE27   3236.409897  19293.719762  22220.830794   -205.689232
PE30 -14777.319676  24577.256639   7372.996179   -178.028659
PE31  13848.445885 -24755.852107  -8431.234263   -490.516961
PE33  14672.618726  -6653.515579 -24820.658061   -460.569429
PE36 -17940.948340 -14651.581086  18442.117165   -315.649222
PG01 -13885.079204   4545.410537  21886.296702    461.773502
PG02  14346.608684  17399.395130 -13278.766150   -648.172349
PG03 -22215.472999  11520.552997   8640.767973    -71.655413
PG04 -22718.011365   1594.065943 -13731.882421   -195.722361
PG05  17996.526578   1961.971011 -19646.857018    -67.305425
PG06   5381.614099  25962.473697   -618.253945    165.992246
PG07  -7104.713064  20196.170145 -15018.814166    300.044565
PG08 -25878.779490  -5793.792433   3460.498037    -51.455477
PG09 -13664.520233  10652.296734 -20212.552971   -358.426314
PG10   6488.199735 -20158.251659  15979.254665   -289.259480
PG11  12170.368268  19368.067840 -13516.006555    -27.070828
PG12  22806.799761  -8257.996323  10399.245965   -153.273956
PG13  22846.927773  13483.870481  -2649.366113    242.633186
PG14  -7768.042333  20181.914735  15374.109619    -68.161666
PG15  26301.297579   2956.819406   3369.990015    -92.833564
PG16 -15468.060716  -6496.167900 -20956.511116   -453.133349
PG17    988.412937  16054.622125  21568.769470    559.071932
PG18   6832.602946 -20759.675252 -15023.748899    264.113910
PG19  10046.972032  17432.334113  17169.654831    103.307479
PG20  10849.338830  11346.042425 -21442.919406    517.252216
PG21 -16663.336093  -5582.395612  20760.369228    155.736976
PG22 -20572.279382   4793.983393  16141.012851   -421.540976
PG23  15858.058254 -20334.758562   6143.568843     12.946333
PG24  16012.636282   -168.492423  20941.540937    277.083497
PG25  19827.757233 -17436.934107     -6.712661    268.362328
PG26  -4735.661821 -16245.798468 -20480.460769    172.816492
PG27 -22546.267105 -12727.003490  -6972.175729     58.216918
PG28   -491.434077  17615.251970  20467.608923    425.711887
PG29  17147.377522  -6619.584382 -19237.105941   -465.111722
PG30   -822.218786  25448.858941  -7035.476009   -505.521791
PG31  -6707.202341 -25226.188926  -3367.339163   -159.122452
PG32  -6295.221763 -16782.470728  19781.794693    -47.817508
PR01   6861.592490 -11589.070001  21662.577315      7.226286
PR02 -14555.624857  -7507.137377  19618.965100    505.988996
PR03 -24940.906300    629.424026   5499.866864     49.627563
PR04 -21253.293450   8127.596275 -11518.775943    122.744092
PR05  -5902.490058  11169.578189 -22157.044017     85.664033
PR07  25018.909660   -998.033616  -4694.551597     30.513984
PR08  21105.138518  -8319.206212  11685.927818    -62.977363
PR09   4711.325621  15047.484010  20042.044981     33.188530
PR11  13311.485602 -18109.068558  12079.705123     47.516551
PR12   6564.012149 -23849.418001  -6155.080108    293.511210
PR13  -3801.694609 -15893.298322 -19602.921774    -16.815446
PR14 -12509.672157   2406.180715 -22090.476789     73.036804
PR15 -13471.930607  18419.433346 -11387.838545     99.021964
PR17 -16860.091883  -9917.961696  16365.183119    491.070659
PR18  -9107.125441   5256.336425  23262.691421    103.290606
PR19   2208.940477  17367.681677  18559.249529   -173.788221
PR20  14471.891817  20970.064469    610.068129    -62.741878
PR21  16458.585202   8909.866886 -17338.307662   -268.744852
PR22   8381.137212  -6151.191039 -23299.468423   -156.961348
PR24 -15216.650336 -20463.936213    167.336449     74.910854
EOF
